[{"OBJECT_NAME":"STARLINK-1795","OBJECT_ID":"2020-073AC","EPOCH":"2026-03-10T00:00:02.999808","MEAN_MOTION":15.67071138,"ECCENTRICITY":0.00023019,"INCLINATION":53.0409,"RA_OF_ASC_NODE":179.3296,"ARG_OF_PERICENTER":81.349,"MEAN_ANOMALY":194.9515,"EPHEMERIS_TYPE":0,"CLASSIFICATION_TYPE":"U","NORAD_CAT_ID":46696,"ELEMENT_SET_NO":999,"REV_AT_EPOCH":589,"BSTAR":0.00013904213,"MEAN_MOTION_DOT":0.00014578,"MEAN_MOTION_DDOT":0},{"OBJECT_NAME":"COSMOS 2251 DEB","OBJECT_ID":"1993-036ACZ","EPOCH":"2026-03-09T10:58:34.310784","MEAN_MOTION":15.61456508,"ECCENTRICITY":0.00259421,"INCLINATION":73.9464,"RA_OF_ASC_NODE":350.3161,"ARG_OF_PERICENTER":162.2886,"MEAN_ANOMALY":197.9243,"EPHEMERIS_TYPE":0,"CLASSIFICATION_TYPE":"U","NORAD_CAT_ID":34886,"ELEMENT_SET_NO":999,"REV_AT_EPOCH":64340,"BSTAR":0.0024914642,"MEAN_MOTION_DOT":0.00222233,"MEAN_MOTION_DDOT":0}]
